CCSDS_OMM_VERS = 2.0
CREATION_DATE  = 
ORIGINATOR     = 

OBJECT_NAME    = SL-8 R/B
OBJECT_ID      = 1985-006B
CENTER_NAME    = EARTH
REF_FRAME      = TEME
TIME_SYSTEM    = UTC
MEAN_ELEMENT_THEORY = SGP/SGP4

EPOCH          = 2026-01-25T07:38:47.545440
MEAN_MOTION    = 14.37757127
ECCENTRICITY   = .0019781
INCLINATION    = 74.0473
RA_OF_ASC_NODE = 340.9508
ARG_OF_PERICENTER = 266.3413
MEAN_ANOMALY   = 201.6677

EPHEMERIS_TYPE = 0
CLASSIFICATION_TYPE = U
NORAD_CAT_ID   = 15483
ELEMENT_SET_NO = 999
REV_AT_EPOCH   = 14779
BSTAR          = .19478146E-3
MEAN_MOTION_DOT = .561E-5
MEAN_MOTION_DDOT = 0

CCSDS_OMM_VERS = 2.0
CREATION_DATE  = 
ORIGINATOR     = 

OBJECT_NAME    = SL-12 R/B(2)
OBJECT_ID      = 1985-042D
CENTER_NAME    = EARTH
REF_FRAME      = TEME
TIME_SYSTEM    = UTC
MEAN_ELEMENT_THEORY = SGP/SGP4

EPOCH          = 2026-01-25T04:07:23.392128
MEAN_MOTION    = 14.21967515
ECCENTRICITY   = .0035843
INCLINATION    = 71.1071
RA_OF_ASC_NODE = 179.6652
ARG_OF_PERICENTER = 196.8897
MEAN_ANOMALY   = 335.9847

EPHEMERIS_TYPE = 0
CLASSIFICATION_TYPE = U
NORAD_CAT_ID   = 15772
ELEMENT_SET_NO = 999
REV_AT_EPOCH   = 10820
BSTAR          = .1079265E-3
MEAN_MOTION_DOT = .192E-5
MEAN_MOTION_DDOT = 0

CCSDS_OMM_VERS = 2.0
CREATION_DATE  = 
ORIGINATOR     = 

OBJECT_NAME    = SL-14 R/B
OBJECT_ID      = 1985-069B
CENTER_NAME    = EARTH
REF_FRAME      = TEME
TIME_SYSTEM    = UTC
MEAN_ELEMENT_THEORY = SGP/SGP4

EPOCH          = 2026-01-25T02:57:20.782080
MEAN_MOTION    = 14.86379640
ECCENTRICITY   = .00182351
INCLINATION    = 82.5245
RA_OF_ASC_NODE = 65.9115
ARG_OF_PERICENTER = 341.4367
MEAN_ANOMALY   = 18.6182

EPHEMERIS_TYPE = 0
CLASSIFICATION_TYPE = U
NORAD_CAT_ID   = 15945
ELEMENT_SET_NO = 999
REV_AT_EPOCH   = 16636
BSTAR          = .90042524E-4
MEAN_MOTION_DOT = .82E-5
MEAN_MOTION_DDOT = 0

CCSDS_OMM_VERS = 2.0
CREATION_DATE  = 
ORIGINATOR     = 

OBJECT_NAME    = SL-16 R/B
OBJECT_ID      = 1985-097B
CENTER_NAME    = EARTH
REF_FRAME      = TEME
TIME_SYSTEM    = UTC
MEAN_ELEMENT_THEORY = SGP/SGP4

EPOCH          = 2026-01-25T07:10:49.622880
MEAN_MOTION    = 14.16590879
ECCENTRICITY   = .00090063
INCLINATION    = 71.0001
RA_OF_ASC_NODE = 231.8998
ARG_OF_PERICENTER = 310.9427
MEAN_ANOMALY   = 222.0253

EPHEMERIS_TYPE = 0
CLASSIFICATION_TYPE = U
NORAD_CAT_ID   = 16182
ELEMENT_SET_NO = 999
REV_AT_EPOCH   = 8108
BSTAR          = .25952366E-4
MEAN_MOTION_DOT = .4E-7
MEAN_MOTION_DDOT = 0

CCSDS_OMM_VERS = 2.0
CREATION_DATE  = 
ORIGINATOR     = 

OBJECT_NAME    = SL-14 R/B
OBJECT_ID      = 1986-006B
CENTER_NAME    = EARTH
REF_FRAME      = TEME
TIME_SYSTEM    = UTC
MEAN_ELEMENT_THEORY = SGP/SGP4

EPOCH          = 2026-01-25T05:54:29.470752
MEAN_MOTION    = 14.86745458
ECCENTRICITY   = .00780296
INCLINATION    = 82.5286
RA_OF_ASC_NODE = 300.6214
ARG_OF_PERICENTER = 57.3281
MEAN_ANOMALY   = 303.5431

EPHEMERIS_TYPE = 0
CLASSIFICATION_TYPE = U
NORAD_CAT_ID   = 16496
ELEMENT_SET_NO = 999
REV_AT_EPOCH   = 14275
BSTAR          = .14071E-3
MEAN_MOTION_DOT = .1351E-4
MEAN_MOTION_DDOT = 0

CCSDS_OMM_VERS = 2.0
CREATION_DATE  = 
ORIGINATOR     = 

OBJECT_NAME    = COSMOS 1743
OBJECT_ID      = 1986-034A
CENTER_NAME    = EARTH
REF_FRAME      = TEME
TIME_SYSTEM    = UTC
MEAN_ELEMENT_THEORY = SGP/SGP4

EPOCH          = 2026-01-25T07:45:43.146720
MEAN_MOTION    = 15.55290420
ECCENTRICITY   = .0005385
INCLINATION    = 82.5345
RA_OF_ASC_NODE = 119.2239
ARG_OF_PERICENTER = 93.5912
MEAN_ANOMALY   = 266.5958

EPHEMERIS_TYPE = 0
CLASSIFICATION_TYPE = U
NORAD_CAT_ID   = 16719
ELEMENT_SET_NO = 999
REV_AT_EPOCH   = 17350
BSTAR          = .68043198E-3
MEAN_MOTION_DOT = .46337E-3
MEAN_MOTION_DDOT = 0

CCSDS_OMM_VERS = 2.0
CREATION_DATE  = 
ORIGINATOR     = 

OBJECT_NAME    = SL-14 R/B
OBJECT_ID      = 1986-046B
CENTER_NAME    = EARTH
REF_FRAME      = TEME
TIME_SYSTEM    = UTC
MEAN_ELEMENT_THEORY = SGP/SGP4

EPOCH          = 2026-01-25T07:05:26.517120
MEAN_MOTION    = 14.85543919
ECCENTRICITY   = .00234441
INCLINATION    = 82.4834
RA_OF_ASC_NODE = 121.1830
ARG_OF_PERICENTER = 15.2149
MEAN_ANOMALY   = 344.9766

EPHEMERIS_TYPE = 0
CLASSIFICATION_TYPE = U
NORAD_CAT_ID   = 16792
ELEMENT_SET_NO = 999
REV_AT_EPOCH   = 11996
BSTAR          = .96667341E-4
MEAN_MOTION_DOT = .863E-5
MEAN_MOTION_DDOT = 0

CCSDS_OMM_VERS = 2.0
CREATION_DATE  = 
ORIGINATOR     = 

OBJECT_NAME    = SL-14 R/B
OBJECT_ID      = 1986-055B
CENTER_NAME    = EARTH
REF_FRAME      = TEME
TIME_SYSTEM    = UTC
MEAN_ELEMENT_THEORY = SGP/SGP4

EPOCH          = 2026-01-25T04:17:16.988640
MEAN_MOTION    = 14.85589651
ECCENTRICITY   = .00202952
INCLINATION    = 82.5218
RA_OF_ASC_NODE = 167.5548
ARG_OF_PERICENTER = 114.4229
MEAN_ANOMALY   = 58.8812

EPHEMERIS_TYPE = 0
CLASSIFICATION_TYPE = U
NORAD_CAT_ID   = 16882
ELEMENT_SET_NO = 999
REV_AT_EPOCH   = 11290
BSTAR          = .12188676E-3
MEAN_MOTION_DOT = .1082E-4
MEAN_MOTION_DDOT = 0

CCSDS_OMM_VERS = 2.0
CREATION_DATE  = 
ORIGINATOR     = 

OBJECT_NAME    = AJISAI (EGS)
OBJECT_ID      = 1986-061A
CENTER_NAME    = EARTH
REF_FRAME      = TEME
TIME_SYSTEM    = UTC
MEAN_ELEMENT_THEORY = SGP/SGP4

EPOCH          = 2026-01-25T07:01:38.568864
MEAN_MOTION    = 12.44515202
ECCENTRICITY   = .00112718
INCLINATION    = 50.0061
RA_OF_ASC_NODE = 226.7943
ARG_OF_PERICENTER = 175.4720
MEAN_ANOMALY   = 358.6341

EPHEMERIS_TYPE = 0
CLASSIFICATION_TYPE = U
NORAD_CAT_ID   = 16908
ELEMENT_SET_NO = 999
REV_AT_EPOCH   = 46259
BSTAR          = .37816369E-4
MEAN_MOTION_DOT = -.92E-6
MEAN_MOTION_DDOT = 0

CCSDS_OMM_VERS = 2.0
CREATION_DATE  = 
ORIGINATOR     = 

OBJECT_NAME    = COSMOS 1812
OBJECT_ID      = 1987-003A
CENTER_NAME    = EARTH
REF_FRAME      = TEME
TIME_SYSTEM    = UTC
MEAN_ELEMENT_THEORY = SGP/SGP4

EPOCH          = 2026-01-25T02:06:01.111968
MEAN_MOTION    = 15.87849225
ECCENTRICITY   = .00013413
INCLINATION    = 82.4804
RA_OF_ASC_NODE = 244.7049
ARG_OF_PERICENTER = 39.2873
MEAN_ANOMALY   = 320.8496

EPHEMERIS_TYPE = 0
CLASSIFICATION_TYPE = U
NORAD_CAT_ID   = 17295
ELEMENT_SET_NO = 999
REV_AT_EPOCH   = 13750
BSTAR          = .77785618E-3
MEAN_MOTION_DOT = .212823E-2
MEAN_MOTION_DDOT = 0

CCSDS_OMM_VERS = 2.0
CREATION_DATE  = 
ORIGINATOR     = 

OBJECT_NAME    = SL-14 R/B
OBJECT_ID      = 1987-024B
CENTER_NAME    = EARTH
REF_FRAME      = TEME
TIME_SYSTEM    = UTC
MEAN_ELEMENT_THEORY = SGP/SGP4

EPOCH          = 2026-01-25T06:39:20.066112
MEAN_MOTION    = 14.86084775
ECCENTRICITY   = .00193413
INCLINATION    = 82.5303
RA_OF_ASC_NODE = 133.5583
ARG_OF_PERICENTER = 47.9191
MEAN_ANOMALY   = 312.3666

EPHEMERIS_TYPE = 0
CLASSIFICATION_TYPE = U
NORAD_CAT_ID   = 17567
ELEMENT_SET_NO = 999
REV_AT_EPOCH   = 8168
BSTAR          = .10178993E-3
MEAN_MOTION_DOT = .918E-5
MEAN_MOTION_DDOT = 0

CCSDS_OMM_VERS = 2.0
CREATION_DATE  = 
ORIGINATOR     = 

OBJECT_NAME    = COSMOS 1833
OBJECT_ID      = 1987-027A
CENTER_NAME    = EARTH
REF_FRAME      = TEME
TIME_SYSTEM    = UTC
MEAN_ELEMENT_THEORY = SGP/SGP4

EPOCH          = 2026-01-25T07:47:34.857600
MEAN_MOTION    = 14.13050959
ECCENTRICITY   = .00245408
INCLINATION    = 70.9195
RA_OF_ASC_NODE = 57.1604
ARG_OF_PERICENTER = 272.0688
MEAN_ANOMALY   = 87.7623

EPHEMERIS_TYPE = 0
CLASSIFICATION_TYPE = U
NORAD_CAT_ID   = 17589
ELEMENT_SET_NO = 999
REV_AT_EPOCH   = 419
BSTAR          = .14769274E-3
MEAN_MOTION_DOT = .228E-5
MEAN_MOTION_DDOT = 0

CCSDS_OMM_VERS = 2.0
CREATION_DATE  = 
ORIGINATOR     = 

OBJECT_NAME    = SL-16 R/B
OBJECT_ID      = 1987-027B
CENTER_NAME    = EARTH
REF_FRAME      = TEME
TIME_SYSTEM    = UTC
MEAN_ELEMENT_THEORY = SGP/SGP4

EPOCH          = 2026-01-25T06:47:11.390208
MEAN_MOTION    = 14.17159881
ECCENTRICITY   = .00059445
INCLINATION    = 71.0035
RA_OF_ASC_NODE = 7.9612
ARG_OF_PERICENTER = 211.3821
MEAN_ANOMALY   = 148.6948

EPHEMERIS_TYPE = 0
CLASSIFICATION_TYPE = U
NORAD_CAT_ID   = 17590
ELEMENT_SET_NO = 999
REV_AT_EPOCH   = 919
BSTAR          = .72855629E-4
MEAN_MOTION_DOT = .99E-6
MEAN_MOTION_DDOT = 0

CCSDS_OMM_VERS = 2.0
CREATION_DATE  = 
ORIGINATOR     = 

OBJECT_NAME    = SL-14 R/B
OBJECT_ID      = 1987-038B
CENTER_NAME    = EARTH
REF_FRAME      = TEME
TIME_SYSTEM    = UTC
MEAN_ELEMENT_THEORY = SGP/SGP4

EPOCH          = 2026-01-25T07:36:52.244640
MEAN_MOTION    = 14.85318536
ECCENTRICITY   = .00180928
INCLINATION    = 82.5036
RA_OF_ASC_NODE = 337.6537
ARG_OF_PERICENTER = 311.4915
MEAN_ANOMALY   = 48.4747

EPHEMERIS_TYPE = 0
CLASSIFICATION_TYPE = U
NORAD_CAT_ID   = 17912
ELEMENT_SET_NO = 999
REV_AT_EPOCH   = 7279
BSTAR          = .11230784E-3
MEAN_MOTION_DOT = .991E-5
MEAN_MOTION_DDOT = 0

CCSDS_OMM_VERS = 2.0
CREATION_DATE  = 
ORIGINATOR     = 

OBJECT_NAME    = COSMOS 1844
OBJECT_ID      = 1987-041A
CENTER_NAME    = EARTH
REF_FRAME      = TEME
TIME_SYSTEM    = UTC
MEAN_ELEMENT_THEORY = SGP/SGP4

EPOCH          = 2026-01-25T08:02:16.762272
MEAN_MOTION    = 14.14535003
ECCENTRICITY   = .00284192
INCLINATION    = 70.8991
RA_OF_ASC_NODE = 125.6246
ARG_OF_PERICENTER = 87.4757
MEAN_ANOMALY   = 272.9618

EPHEMERIS_TYPE = 0
CLASSIFICATION_TYPE = U
NORAD_CAT_ID   = 17973
ELEMENT_SET_NO = 999
REV_AT_EPOCH   = 99745
BSTAR          = -.4624137E-4
MEAN_MOTION_DOT = -.137E-5
MEAN_MOTION_DDOT = 0

